ALOS (DAICHI)           
1 28931U 06002A   25351.73419158  .00001110  00000+0  19545-3 0  9994
2 28931  98.1098 303.1864 0001361 113.5739 246.5610 14.69501788 61443
H-2A R/B                
1 28932U 06002B   25364.88548581  .00016293  00000+0  84398-3 0  9994
2 28932  98.2316 141.1216 0054682 115.1736 245.5179 15.14970439 84019
RESURS-DK 1             
1 29228U 06021A   25364.55782848  .00004525  00000+0  26690-3 0  9990
2 29228  69.9346  55.7863 0007030 243.6938 116.3507 15.12273228 77078
CZ-4B R/B               
1 29507U 06046C   25364.72297499  .00008431  00000+0  43484-3 0  9999
2 29507  97.5719  44.8127 0034714 144.4191 215.9366 15.16071619 49598
CZ-2C R/B               
1 31114U 07010B   25364.82498448  .00000265  00000+0  14069-3 0  9990
2 31114  98.3976 116.5659 0059814 133.8132 226.8014 14.20218115969940
COSMO-SKYMED 1          
1 31598U 07023A   25364.98325153  .00006865  00000+0  61838-3 0  9997
2 31598  97.8831 190.5033 0001053  84.3402 275.7938 14.95916710  4632
COSMOS 2428             
1 31792U 07029A   25364.36698789  .00000337  00000+0  20695-3 0  9993
2 31792  70.9374 348.8688 0004687 359.1578   0.9534 14.12898462954309
SL-16 R/B               
1 31793U 07029B   25364.98395111  .00000265  00000+0  16231-3 0  9996
2 31793  70.9771 316.8062 0001977 268.9993 153.0835 14.14823220955654
KORONAS-FOTON           
1 33504U 09003A   25364.99674821  .00014329  00000+0  33912-3 0  9992
2 33504  82.4308 347.1824 0012970  51.7774 308.4638 15.41565953935150
CZ-2C R/B               
1 37731U 11030B   25364.90546958  .00002630  00000+0  33895-3 0  9993
2 37731  97.8429 318.6129 0051864 212.9631 214.8200 14.80964089779919
H-2A R/B                
1 38341U 12025E   25365.11866766  .00005341  00000+0  49010-3 0  9990
2 38341  98.4620 321.7698 0044888 175.0033 185.1642 14.94580065737979
SHIJIAN-16 (SJ-16)      
1 39358U 13057A   25365.17620057  .00002882  00000+0  28584-3 0  9992
2 39358  74.9738 314.7679 0018021 277.2067  82.7072 14.92059840661289
